[{"OBJECT_ID":"2014-058A","OBJECT_NAME":"LUCH (OLYMP)","NORAD_CAT_ID":"40258","OBJECT_TYPE":"PAYLOAD","PERIOD":"1436.105","INCLINATION":"0.0107","APOGEE":"35791.476","PERIGEE":"35782.039","ECCENTRICITY":"0.0001119","MEAN_MOTION":"1.00271211","TLE_LINE1":"1 40258U 14058A   16238.65265712 -.00000039  00000-0  00000+0 0  9993","TLE_LINE2":"2 40258   0.0107 188.4472 0001119  72.4614 307.3094  1.00271211  7018","LAUNCH_DATE":"2014-09-27","LAUNCH_SITE":"TYURATAM MISSILE AND SPACE COMPLEX","OWNER":"COMMONWEALTH OF INDEPENDENT STATES","ORBIT_TYPE":"Geosynchronous","OPERATIONAL_STATUS":"Operational","satInfo":{"lng":20.901504617049405,"lat":-0.03963498052786639,"elevation":-8.60869024379368,"azimuth":294.0984953829506,"range":42664.66784233214,"height":35805.86751490058,"velocity":3.073900215026922},"x":91,"y":-242,"dx":2.8716225368201473,"dy":1.0966524235003452,"maxAlt":256,"minAlt":256},{"OBJECT_ID":"2014-058B","OBJECT_NAME":"BREEZE-M R/B","NORAD_CAT_ID":"40259","OBJECT_TYPE":"ROCKET BODY","PERIOD":"1570.546","INCLINATION":"1.5333","APOGEE":"40975.851","PERIGEE":"35781.831","ECCENTRICITY":"0.0580247","MEAN_MOTION":"0.91687822","TLE_LINE1":"1 40259U 14058B   16237.97309419 -.00000193  00000-0  00000+0 0  9992","TLE_LINE2":"2 40259   1.5333  79.4729 0580247 124.7199 241.4998  0.91687822  6404","LAUNCH_DATE":"2014-09-27","LAUNCH_SITE":"TYURATAM MISSILE AND SPACE COMPLEX","OWNER":"COMMONWEALTH OF INDEPENDENT STATES","ORBIT_TYPE":"Unclassified","OPERATIONAL_STATUS":"N/A, derelict rocket body","satInfo":{"lng":-174.80547227384272,"lat":-3.875046583321572,"elevation":-11.832633075643107,"azimuth":129.80547227384272,"range":45793.91200516573,"height":38545.295492488454,"velocity":2.973230880870672},"x":-27,"y":275,"dx":-2.9610199712517598,"dy":-0.2691887828480604,"maxAlt":294,"minAlt":256},{"OBJECT_ID":"2014-064B","OBJECT_NAME":"BREEZE-M R/B","NORAD_CAT_ID":"40278","OBJECT_TYPE":"ROCKET BODY","PERIOD":"1512.243","INCLINATION":"0.47","APOGEE":"39734.921","PERIGEE":"34793.466","ECCENTRICITY":"0.0566131","MEAN_MOTION":"0.95222787","TLE_LINE1":"1 40278U 14064B   16238.93816758 -.00000155  00000-0  00000+0 0  9994","TLE_LINE2":"2 40278   0.4700  80.6914 0566131 145.2013 129.3295  0.95222787  6436","LAUNCH_DATE":"2014-10-21","LAUNCH_SITE":"TYURATAM MISSILE AND SPACE COMPLEX","OWNER":"COMMONWEALTH OF INDEPENDENT STATES","ORBIT_TYPE":"Unclassified","OPERATIONAL_STATUS":"N/A, derelict rocket body","satInfo":{"lng":4.985933796679886,"lat":2.7738033634084798,"elevation":-5.473269267495635,"azimuth":310.0140662033201,"range":44280.86189184812,"height":37752.49477069855,"velocity":2.988547241845053},"x":22,"y":-272,"dx":2.977238773162976,"dy":0.25973814566730424,"maxAlt":285,"minAlt":249},{"OBJECT_ID":"2014-082B","OBJECT_NAME":"BREEZE-M R/B","NORAD_CAT_ID":"40346","OBJECT_TYPE":"ROCKET BODY","PERIOD":"1293.391","INCLINATION":"1.4397","APOGEE":"35376.612","PERIGEE":"30513.149","ECCENTRICITY":"0.0618399","MEAN_MOTION":"1.1133521","TLE_LINE1":"1 40346U 14082B   16237.80401350 -.00000141  00000-0  00000+0 0  9998","TLE_LINE2":"2 40346   1.4397  99.5316 0618399  61.7743 304.6604  1.11335210  6837","LAUNCH_DATE":"2014-12-15","LAUNCH_SITE":"TYURATAM MISSILE AND SPACE COMPLEX","OWNER":"COMMONWEALTH OF INDEPENDENT STATES","ORBIT_TYPE":"Unclassified","OPERATIONAL_STATUS":"N/A, derelict rocket body","satInfo":{"lng":-16.35774841425575,"lat":2.2797162032197003,"elevation":-7.19798994935308,"azimuth":331.3577484142557,"range":38586.422130381594,"height":31934.478457420806,"velocity":3.2667337661143407},"x":-66,"y":-222,"dx":3.1345026571599925,"dy":-0.9200231469525815,"maxAlt":253,"minAlt":218},{"OBJECT_ID":"2015-022A","OBJECT_NAME":"THOR 7","NORAD_CAT_ID":"40613","OBJECT_TYPE":"PAYLOAD","PERIOD":"1436.078","INCLINATION":"0.0344","APOGEE":"35796.727","PERIGEE":"35775.754","ECCENTRICITY":"0.0002487","MEAN_MOTION":"1.00273055","TLE_LINE1":"1 40613U 15022A   16238.07472141 -.00000034 +00000-0 +00000-0 0  9998","TLE_LINE2":"2 40613 000.0344 239.4609 0002487 281.2404 199.3031 01.00273055004904","LAUNCH_DATE":"2015-04-26","LAUNCH_SITE":"FRENCH GUIANA","OWNER":"NORWAY","ORBIT_TYPE":"Geosynchronous","OPERATIONAL_STATUS":"Operational","satInfo":{"lng":16.917908402164716,"lat":-1.791936091503366,"elevation":-10.319103336071061,"azimuth":298.0820915978353,"range":42842.931811161136,"height":35792.427895334105,"velocity":3.0747976704929756},"x":74,"y":-248,"dx":2.941728653242979,"dy":0.8947699397936199,"maxAlt":256,"minAlt":256},{"OBJECT_ID":"2012-035E","OBJECT_NAME":"MSG 3 DEB (COOLER COVER)","NORAD_CAT_ID":"40871","OBJECT_TYPE":"DEBRIS","PERIOD":"1418.465","INCLINATION":"1.6273","APOGEE":"35579.751","PERIGEE":"35301.805","ECCENTRICITY":"0.0033232","MEAN_MOTION":"1.01518138","TLE_LINE1":"1 40871U 12035E   16239.41377436 -.00000184  00000-0  00000+0 0  9990","TLE_LINE2":"2 40871   1.6273 100.7768 0033232 179.0080  85.1063  1.01518138 14835","LAUNCH_DATE":"2012-07-05","LAUNCH_SITE":"FRENCH GUIANA","OWNER":"EUROPEAN ORGANIZATION FOR THE EXPLOITATION OF METEOROLOGICAL SATELLITES","ORBIT_TYPE":"Unclassified","OPERATIONAL_STATUS":"N/A, space debris","satInfo":{"lng":-10.13345620354795,"lat":2.5746735440722377,"elevation":-6.093531702203378,"azimuth":325.13345620354795,"range":42150.65925168142,"height":35576.67759761946,"velocity":3.077404549961086},"x":-47,"y":-254,"dx":3.029398921868875,"dy":-0.5414433823594977,"maxAlt":255,"minAlt":253},{"OBJECT_ID":"2015-068A","OBJECT_NAME":"TELSTAR 12V","NORAD_CAT_ID":"41036","OBJECT_TYPE":"PAYLOAD","PERIOD":"1436.098","INCLINATION":"0.0119","APOGEE":"35795.513","PERIGEE":"35777.737","ECCENTRICITY":"0.0002108","MEAN_MOTION":"1.00271683","TLE_LINE1":"1 41036U 15068A   16239.11171681 -.00000147  00000-0  00000+0 0  9993","TLE_LINE2":"2 41036   0.0119 156.8323 0002108  23.2155 179.9452  1.00271683  2810","LAUNCH_DATE":"2015-11-24","LAUNCH_SITE":"TANEGASHIMA SPACE CENTER","OWNER":"CANADA","ORBIT_TYPE":"Geosynchronous","OPERATIONAL_STATUS":"Operational","satInfo":{"lng":-139.6705762475555,"lat":-0.5961700356393019,"elevation":-9.159537699084407,"azimuth":94.6705762475555,"range":42687.70729688324,"height":35767.53538310835,"velocity":3.0751003972984052},"x":-168,"y":195,"dx":-2.344259969693693,"dy":-1.9901476447632058,"maxAlt":256,"minAlt":256},{"OBJECT_ID":"2016-004B","OBJECT_NAME":"ARIANE 5 R/B","NORAD_CAT_ID":"41309","OBJECT_TYPE":"ROCKET BODY","PERIOD":"626.170","INCLINATION":"0.478","APOGEE":"35426.656","PERIGEE":"307.032","ECCENTRICITY":"0.7242659","MEAN_MOTION":"2.29969388","TLE_LINE1":"1 41309U 16004B   16238.61829022  .00000612  00000-0  51634-3 0  9999","TLE_LINE2":"2 41309   0.4780 176.8779 7242659  31.5345  77.9122  2.29969388  4850","LAUNCH_DATE":"2016-01-27","LAUNCH_SITE":"FRENCH GUIANA","OWNER":"FRANCE","ORBIT_TYPE":"Highly Elliptical Orbit","OPERATIONAL_STATUS":"N/A, derelict rocket body","satInfo":{"lng":-2.4277677280036762,"lat":0.8365253458928509,"elevation":-8.14182919685811,"azimuth":317.42776772800363,"range":40734.424480182875,"height":33949.99960448028,"velocity":1.8035190113242532},"x":-12,"y":-246,"dx":1.8019002055211788,"dy":-0.07639681636524757,"maxAlt":254,"minAlt":1},{"OBJECT_ID":"2016-014A","OBJECT_NAME":"EUTE 65W","NORAD_CAT_ID":"41382","OBJECT_TYPE":"PAYLOAD","PERIOD":"1436.057","INCLINATION":"0.0473","APOGEE":"35792.953","PERIGEE":"35778.684","ECCENTRICITY":"0.0001692","MEAN_MOTION":"1.0027456","TLE_LINE1":"1 41382U 16014A   16238.25353987 -.00000302  00000-0  00000+0 0  9997","TLE_LINE2":"2 41382   0.0473 329.3030 0001692 230.6988 159.9862  1.00274560  1723","LAUNCH_DATE":"2016-03-09","LAUNCH_SITE":"FRENCH GUIANA","OWNER":"EUROPEAN TELECOMMUNICATIONS SATELLITE ORGANIZATION (EUTELSAT)","ORBIT_TYPE":"Geosynchronous","OPERATIONAL_STATUS":"Operational","satInfo":{"lng":-77.41635258962609,"lat":1.2209619870972634,"elevation":-7.375405750555309,"azimuth":32.41635258962608,"range":42526.763904659165,"height":35806.34372434957,"velocity":3.073726652043703},"x":-253,"y":-58,"dx":0.6696565333892547,"dy":-2.999892607873302,"maxAlt":256,"minAlt":256},{"OBJECT_ID":"2016-014B","OBJECT_NAME":"ARIANE 5 R/B","NORAD_CAT_ID":"41383","OBJECT_TYPE":"ROCKET BODY","PERIOD":"618.509","INCLINATION":"0.8595","APOGEE":"35138.953","PERIGEE":"198.406","ECCENTRICITY":"0.7265109","MEAN_MOTION":"2.32817923","TLE_LINE1":"1 41383U 16014B   16238.60969353  .00014742  97915-7  12012-2 0  9996","TLE_LINE2":"2 41383   0.8595  42.8498 7265109 281.5241   4.1007  2.32817923  3907","LAUNCH_DATE":"2016-03-09","LAUNCH_SITE":"FRENCH GUIANA","OWNER":"FRANCE","ORBIT_TYPE":"Highly Elliptical Orbit","OPERATIONAL_STATUS":"N/A, derelict rocket body","satInfo":{"lng":78.50997352987427,"lat":-0.18326511471430368,"elevation":-12.083031533059666,"azimuth":236.4900264701257,"range":30829.035760339695,"height":23768.04390058237,"velocity":2.841420257872401},"x":166,"y":-36,"dx":0.5660033997793149,"dy":2.784476473825182,"maxAlt":252,"minAlt":0},{"OBJECT_ID":"2015-075D","OBJECT_NAME":"BREEZE-M DEB","NORAD_CAT_ID":"41543","OBJECT_TYPE":"DEBRIS","PERIOD":"1367.406","INCLINATION":"0.5619","APOGEE":"35470.677","PERIGEE":"33391.560","ECCENTRICITY":"0.0254736","MEAN_MOTION":"1.05308829","TLE_LINE1":"1 41543U 15075D   16234.46320362 -.00000156  00000-0  00000+0 0  9999","TLE_LINE2":"2 41543   0.5619 104.3093 0254736  55.9013 200.8037  1.05308829  2301","LAUNCH_DATE":"2015-12-13","LAUNCH_SITE":"TYURATAM MISSILE AND SPACE COMPLEX","OWNER":"COMMONWEALTH OF INDEPENDENT STATES","ORBIT_TYPE":"Unclassified","OPERATIONAL_STATUS":"N/A, space debris","satInfo":{"lng":-77.293231967977,"lat":-1.2928273754505757,"elevation":-9.992109702293238,"azimuth":32.293231967976965,"range":42013.92758407632,"height":35009.03350802363,"velocity":3.0813775793363565},"x":-247,"y":-57,"dx":0.6777842411935298,"dy":-3.0059102296686264,"maxAlt":254,"minAlt":239}]